ONEWEB-0534             
1 55797U 23029B   25276.18654261  .00000102  00000+0  21963-3 0  9990
2 55797  87.9237 325.7373 0001796  97.0752 263.0586 13.20772087127225
ONEWEB-0556             
1 55798U 23029C   25276.57165154 -.00000001  00000+0 -35075-4 0  9992
2 55798  87.9243 325.6572 0001424  76.0046 284.1246 13.20773046127272
ONEWEB-0562             
1 55799U 23029D   25276.40751962  .00000102  00000+0  22015-3 0  9992
2 55799  87.9234 325.6758 0002023  70.0103 290.1248 13.20771530127256
ONEWEB-0563             
1 55800U 23029E   25276.09816210  .00000122  00000+0  26846-3 0  9996
2 55800  87.9246 325.7604 0001614  99.2918 260.8398 13.20772146127204
ONEWEB-0564             
1 55801U 23029F   25276.39486621 -.00001068  00000+0 -26591-2 0  9997
2 55801  87.9239 325.6817 0002004  85.6846 274.4516 13.20776093127258
ONEWEB-0638             
1 55802U 23029G   25276.57166581  .00000028  00000+0  41910-4 0  9995
2 55802  87.9067 340.8806 0001575  85.0419 275.0891 13.14501956125682
ONEWEB-0639             
1 55803U 23029H   25276.24042656  .00000146  00000+0  33207-3 0  9996
2 55803  87.9272 356.0935 0001621 137.9867 222.1390 13.19727472125011
ONEWEB-0640             
1 55804U 23029J   25276.58118288  .00000173  00000+0  43333-3 0  9990
2 55804  87.9067 340.8630 0001188  93.1754 266.9512 13.14494295125700
ONEWEB-0641             
1 55805U 23029K   25276.23570348  .00000902  00000+0  22210-2 0  9992
2 55805  87.9287 356.0691 0001777 106.8120 253.3208 13.19721004125027
ONEWEB-0642             
1 55806U 23029L   25277.51983250 -.00000010  00000+0 -56075-4 0  9995
2 55806  87.9269 355.8453 0001995 128.0213 232.1100 13.19727372125189
ONEWEB-0643             
1 55807U 23029M   25277.46445889  .00000248  00000+0  63502-3 0  9994
2 55807  87.9065 340.6723 0002230 118.1626 241.9729 13.14502745125799
ONEWEB-0644             
1 55808U 23029N   25276.22622205  .00000083  00000+0  17596-3 0  9996
2 55808  87.9272 356.1103 0001820 116.9755 243.1564 13.19726791125017
ONEWEB-0645             
1 55809U 23029P   25277.51116933  .00000175  00000+0  40416-3 0  9995
2 55809  87.9266 355.8397 0001468 113.0159 247.1128 13.19724490125188
ONEWEB-0646             
1 55810U 23029Q   25276.18984824 -.00002215  00000+0 -55676-2 0  9993
2 55810  87.9270 356.1001 0001704 111.1502 248.9813 13.19703485124994
ONEWEB-0648             
1 55811U 23029R   25276.44322365 -.00000209  00000+0 -59888-3 0  9990
2 55811  87.9045 340.8421 0001402 131.4052 228.7198 13.14504688125667
ONEWEB-0649             
1 55812U 23029S   25277.50403444  .00000044  00000+0  77522-4 0  9998
2 55812  87.9280 355.8336 0001636 114.6652 245.4651 13.19728096125204
ONEWEB-0650             
1 55813U 23029T   25277.49932500  .00000060  00000+0  11798-3 0  9997
2 55813  87.9274 355.8444 0001869 106.5586 253.5752 13.19725802125172
