[{"OBJECT_NAME":"ONEWEB-0534","OBJECT_ID":"2023-029B","EPOCH":"2025-10-03T04:28:37.281504","MEAN_MOTION":13.20772087,"ECCENTRICITY":0.00017963,"INCLINATION":87.9237,"RA_OF_ASC_NODE":325.7373,"ARG_OF_PERICENTER":97.0752,"MEAN_ANOMALY":263.0586,"EPHEMERIS_TYPE":0,"CLASSIFICATION_TYPE":"U","NORAD_CAT_ID":55797,"ELEMENT_SET_NO":999,"REV_AT_EPOCH":12722,"BSTAR":0.00021962861,"MEAN_MOTION_DOT":1.02e-6,"MEAN_MOTION_DDOT":0},{"OBJECT_NAME":"ONEWEB-0556","OBJECT_ID":"2023-029C","EPOCH":"2025-10-03T13:43:10.693056","MEAN_MOTION":13.20773046,"ECCENTRICITY":0.00014242,"INCLINATION":87.9243,"RA_OF_ASC_NODE":325.6572,"ARG_OF_PERICENTER":76.0046,"MEAN_ANOMALY":284.1246,"EPHEMERIS_TYPE":0,"CLASSIFICATION_TYPE":"U","NORAD_CAT_ID":55798,"ELEMENT_SET_NO":999,"REV_AT_EPOCH":12727,"BSTAR":-3.5074935e-5,"MEAN_MOTION_DOT":-1.0e-8,"MEAN_MOTION_DDOT":0},{"OBJECT_NAME":"ONEWEB-0562","OBJECT_ID":"2023-029D","EPOCH":"2025-10-03T09:46:49.695168","MEAN_MOTION":13.2077153,"ECCENTRICITY":0.00020233,"INCLINATION":87.9234,"RA_OF_ASC_NODE":325.6758,"ARG_OF_PERICENTER":70.0103,"MEAN_ANOMALY":290.1248,"EPHEMERIS_TYPE":0,"CLASSIFICATION_TYPE":"U","NORAD_CAT_ID":55799,"ELEMENT_SET_NO":999,"REV_AT_EPOCH":12725,"BSTAR":0.0002201485,"MEAN_MOTION_DOT":1.02e-6,"MEAN_MOTION_DDOT":0},{"OBJECT_NAME":"ONEWEB-0563","OBJECT_ID":"2023-029E","EPOCH":"2025-10-03T02:21:21.205440","MEAN_MOTION":13.20772146,"ECCENTRICITY":0.00016142,"INCLINATION":87.9246,"RA_OF_ASC_NODE":325.7604,"ARG_OF_PERICENTER":99.2918,"MEAN_ANOMALY":260.8398,"EPHEMERIS_TYPE":0,"CLASSIFICATION_TYPE":"U","NORAD_CAT_ID":55800,"ELEMENT_SET_NO":999,"REV_AT_EPOCH":12720,"BSTAR":0.00026846259,"MEAN_MOTION_DOT":1.22e-6,"MEAN_MOTION_DDOT":0},{"OBJECT_NAME":"ONEWEB-0564","OBJECT_ID":"2023-029F","EPOCH":"2025-10-03T09:28:36.440544","MEAN_MOTION":13.20776093,"ECCENTRICITY":0.00020049,"INCLINATION":87.9239,"RA_OF_ASC_NODE":325.6817,"ARG_OF_PERICENTER":85.6846,"MEAN_ANOMALY":274.4516,"EPHEMERIS_TYPE":0,"CLASSIFICATION_TYPE":"U","NORAD_CAT_ID":55801,"ELEMENT_SET_NO":999,"REV_AT_EPOCH":12725,"BSTAR":-0.0026590696,"MEAN_MOTION_DOT":-1.068e-5,"MEAN_MOTION_DDOT":0},{"OBJECT_NAME":"ONEWEB-0638","OBJECT_ID":"2023-029G","EPOCH":"2025-10-03T13:43:11.925984","MEAN_MOTION":13.14501956,"ECCENTRICITY":0.00015751,"INCLINATION":87.9067,"RA_OF_ASC_NODE":340.8806,"ARG_OF_PERICENTER":85.0419,"MEAN_ANOMALY":275.0891,"EPHEMERIS_TYPE":0,"CLASSIFICATION_TYPE":"U","NORAD_CAT_ID":55802,"ELEMENT_SET_NO":999,"REV_AT_EPOCH":12568,"BSTAR":4.1909639e-5,"MEAN_MOTION_DOT":2.8e-7,"MEAN_MOTION_DDOT":0},{"OBJECT_NAME":"ONEWEB-0639","OBJECT_ID":"2023-029H","EPOCH":"2025-10-03T05:46:12.854784","MEAN_MOTION":13.19727472,"ECCENTRICITY":0.00016216,"INCLINATION":87.9272,"RA_OF_ASC_NODE":356.0935,"ARG_OF_PERICENTER":137.9867,"MEAN_ANOMALY":222.139,"EPHEMERIS_TYPE":0,"CLASSIFICATION_TYPE":"U","NORAD_CAT_ID":55803,"ELEMENT_SET_NO":999,"REV_AT_EPOCH":12501,"BSTAR":0.00033206544,"MEAN_MOTION_DOT":1.46e-6,"MEAN_MOTION_DDOT":0},{"OBJECT_NAME":"ONEWEB-0640","OBJECT_ID":"2023-029J","EPOCH":"2025-10-03T13:56:54.200832","MEAN_MOTION":13.14494295,"ECCENTRICITY":0.00011887,"INCLINATION":87.9067,"RA_OF_ASC_NODE":340.863,"ARG_OF_PERICENTER":93.1754,"MEAN_ANOMALY":266.9512,"EPHEMERIS_TYPE":0,"CLASSIFICATION_TYPE":"U","NORAD_CAT_ID":55804,"ELEMENT_SET_NO":999,"REV_AT_EPOCH":12570,"BSTAR":0.00043333239,"MEAN_MOTION_DOT":1.73e-6,"MEAN_MOTION_DDOT":0},{"OBJECT_NAME":"ONEWEB-0641","OBJECT_ID":"2023-029K","EPOCH":"2025-10-03T05:39:24.780672","MEAN_MOTION":13.19721004,"ECCENTRICITY":0.0001777,"INCLINATION":87.9287,"RA_OF_ASC_NODE":356.0691,"ARG_OF_PERICENTER":106.812,"MEAN_ANOMALY":253.3208,"EPHEMERIS_TYPE":0,"CLASSIFICATION_TYPE":"U","NORAD_CAT_ID":55805,"ELEMENT_SET_NO":999,"REV_AT_EPOCH":12502,"BSTAR":0.0022210447,"MEAN_MOTION_DOT":9.02e-6,"MEAN_MOTION_DDOT":0},{"OBJECT_NAME":"ONEWEB-0642","OBJECT_ID":"2023-029L","EPOCH":"2025-10-04T12:28:33.528000","MEAN_MOTION":13.19727372,"ECCENTRICITY":0.0001995,"INCLINATION":87.9269,"RA_OF_ASC_NODE":355.8453,"ARG_OF_PERICENTER":128.0213,"MEAN_ANOMALY":232.11,"EPHEMERIS_TYPE":0,"CLASSIFICATION_TYPE":"U","NORAD_CAT_ID":55806,"ELEMENT_SET_NO":999,"REV_AT_EPOCH":12518,"BSTAR":-5.6075e-5,"MEAN_MOTION_DOT":-1.0e-7,"MEAN_MOTION_DDOT":0},{"OBJECT_NAME":"ONEWEB-0643","OBJECT_ID":"2023-029M","EPOCH":"2025-10-04T11:08:49.248096","MEAN_MOTION":13.14502745,"ECCENTRICITY":0.000223,"INCLINATION":87.9065,"RA_OF_ASC_NODE":340.6723,"ARG_OF_PERICENTER":118.1626,"MEAN_ANOMALY":241.9729,"EPHEMERIS_TYPE":0,"CLASSIFICATION_TYPE":"U","NORAD_CAT_ID":55807,"ELEMENT_SET_NO":999,"REV_AT_EPOCH":12579,"BSTAR":0.00063502,"MEAN_MOTION_DOT":2.48e-6,"MEAN_MOTION_DDOT":0},{"OBJECT_NAME":"ONEWEB-0644","OBJECT_ID":"2023-029N","EPOCH":"2025-10-03T05:25:45.585120","MEAN_MOTION":13.19726791,"ECCENTRICITY":0.00018204,"INCLINATION":87.9272,"RA_OF_ASC_NODE":356.1103,"ARG_OF_PERICENTER":116.9755,"MEAN_ANOMALY":243.1564,"EPHEMERIS_TYPE":0,"CLASSIFICATION_TYPE":"U","NORAD_CAT_ID":55808,"ELEMENT_SET_NO":999,"REV_AT_EPOCH":12501,"BSTAR":0.00017595891,"MEAN_MOTION_DOT":8.3e-7,"MEAN_MOTION_DDOT":0},{"OBJECT_NAME":"ONEWEB-0645","OBJECT_ID":"2023-029P","EPOCH":"2025-10-04T12:16:05.030112","MEAN_MOTION":13.1972449,"ECCENTRICITY":0.0001468,"INCLINATION":87.9266,"RA_OF_ASC_NODE":355.8397,"ARG_OF_PERICENTER":113.0159,"MEAN_ANOMALY":247.1128,"EPHEMERIS_TYPE":0,"CLASSIFICATION_TYPE":"U","NORAD_CAT_ID":55809,"ELEMENT_SET_NO":999,"REV_AT_EPOCH":12518,"BSTAR":0.00040416,"MEAN_MOTION_DOT":1.75e-6,"MEAN_MOTION_DDOT":0},{"OBJECT_NAME":"ONEWEB-0646","OBJECT_ID":"2023-029Q","EPOCH":"2025-10-03T04:33:22.887936","MEAN_MOTION":13.19703485,"ECCENTRICITY":0.00017043,"INCLINATION":87.927,"RA_OF_ASC_NODE":356.1001,"ARG_OF_PERICENTER":111.1502,"MEAN_ANOMALY":248.9813,"EPHEMERIS_TYPE":0,"CLASSIFICATION_TYPE":"U","NORAD_CAT_ID":55810,"ELEMENT_SET_NO":999,"REV_AT_EPOCH":12499,"BSTAR":-0.005567634,"MEAN_MOTION_DOT":-2.215e-5,"MEAN_MOTION_DDOT":0},{"OBJECT_NAME":"ONEWEB-0648","OBJECT_ID":"2023-029R","EPOCH":"2025-10-03T10:38:14.523360","MEAN_MOTION":13.14504688,"ECCENTRICITY":0.00014025,"INCLINATION":87.9045,"RA_OF_ASC_NODE":340.8421,"ARG_OF_PERICENTER":131.4052,"MEAN_ANOMALY":228.7198,"EPHEMERIS_TYPE":0,"CLASSIFICATION_TYPE":"U","NORAD_CAT_ID":55811,"ELEMENT_SET_NO":999,"REV_AT_EPOCH":12566,"BSTAR":-0.00059888008,"MEAN_MOTION_DOT":-2.09e-6,"MEAN_MOTION_DDOT":0},{"OBJECT_NAME":"ONEWEB-0649","OBJECT_ID":"2023-029S","EPOCH":"2025-10-04T12:05:48.575616","MEAN_MOTION":13.19728096,"ECCENTRICITY":0.0001636,"INCLINATION":87.928,"RA_OF_ASC_NODE":355.8336,"ARG_OF_PERICENTER":114.6652,"MEAN_ANOMALY":245.4651,"EPHEMERIS_TYPE":0,"CLASSIFICATION_TYPE":"U","NORAD_CAT_ID":55812,"ELEMENT_SET_NO":999,"REV_AT_EPOCH":12520,"BSTAR":7.7522e-5,"MEAN_MOTION_DOT":4.4e-7,"MEAN_MOTION_DDOT":0},{"OBJECT_NAME":"ONEWEB-0650","OBJECT_ID":"2023-029T","EPOCH":"2025-10-04T11:59:01.680000","MEAN_MOTION":13.19725802,"ECCENTRICITY":0.0001869,"INCLINATION":87.9274,"RA_OF_ASC_NODE":355.8444,"ARG_OF_PERICENTER":106.5586,"MEAN_ANOMALY":253.5752,"EPHEMERIS_TYPE":0,"CLASSIFICATION_TYPE":"U","NORAD_CAT_ID":55813,"ELEMENT_SET_NO":999,"REV_AT_EPOCH":12517,"BSTAR":0.00011798,"MEAN_MOTION_DOT":6.0e-7,"MEAN_MOTION_DDOT":0}]
